[{"OBJECT_NAME":"OBJECT A","OBJECT_ID":"2025-313A","EPOCH":"2026-03-09T21:22:42.572064","MEAN_MOTION":14.66981537,"ECCENTRICITY":0.02771301,"INCLINATION":97.5525,"RA_OF_ASC_NODE":140.9497,"ARG_OF_PERICENTER":295.9559,"MEAN_ANOMALY":61.3334,"EPHEMERIS_TYPE":0,"CLASSIFICATION_TYPE":"U","NORAD_CAT_ID":67248,"ELEMENT_SET_NO":999,"REV_AT_EPOCH":1046,"BSTAR":0.0001505143,"MEAN_MOTION_DOT":1.44e-5,"MEAN_MOTION_DDOT":0},{"OBJECT_NAME":"FENGYUN 1C DEB","OBJECT_ID":"1999-025SP","EPOCH":"2026-03-09T14:50:16.315296","MEAN_MOTION":14.13528619,"ECCENTRICITY":0.001773,"INCLINATION":98.6888,"RA_OF_ASC_NODE":90.1783,"ARG_OF_PERICENTER":299.5434,"MEAN_ANOMALY":180.6512,"EPHEMERIS_TYPE":0,"CLASSIFICATION_TYPE":"U","NORAD_CAT_ID":30134,"ELEMENT_SET_NO":999,"REV_AT_EPOCH":98473,"BSTAR":0.00054641,"MEAN_MOTION_DOT":9.88e-6,"MEAN_MOTION_DDOT":0}]
